NORAD_CAT_ID,OBJECT_NAME,OBJECT_TYPE,EPOCH,MEAN_MOTION,ECCENTRICITY,INCLINATION,RA_OF_ASC_NODE,ARG_OF_PERICENTER,MEAN_ANOMALY,BSTAR,MEAN_MOTION_DOT,MEAN_MOTION_DDOT,TLE_LINE0,TLE_LINE1,TLE_LINE2,SEMIMAJOR_AXIS,PERIOD,APOGEE,PERIGEE,DECAYED
56497.0,STARLINK-5527,PAYLOAD,2024-06-25 04:57:20,14.9833073,0.0003448,69.9991,233.8302,266.967,93.1094,-3.7498e-06,-1.38e-06,0.0,0 STARLINK-5527,1 56497U 23064BB  24177.20648440 -.00000138  00000-0 -37498-5 0  9995,2 56497  69.9991 233.8302 0003448 266.9670  93.1094 14.98330730 63353,6950.191,96.107,574.452,569.659,0.0
56497.0,STARLINK-5527,PAYLOAD,2024-06-25 12:58:00,14.98329227,0.0003501,69.9991,232.9887,266.5711,93.5048,-2.4519e-05,-3.86e-06,0.0,0 STARLINK-5527,1 56497U 23064BB  24177.54028576 -.00000386  00000-0 -24519-4 0  9998,2 56497  69.9991 232.9887 0003501 266.5711  93.5048 14.98329227 63041,6950.195,96.107,574.494,569.627,0.0
56497.0,STARLINK-5527,PAYLOAD,2024-06-26 04:59:21,14.98329895,0.0003458,69.9993,231.3056,263.1029,96.9737,-6.3112e-06,-1.68e-06,0.0,0 STARLINK-5527,1 56497U 23064BB  24178.20788449 -.00000168  00000-0 -63112-5 0  9995,2 56497  69.9993 231.3056 0003458 263.1029  96.9737 14.98329895 63504,6950.193,96.107,574.462,569.655,0.0
56497.0,STARLINK-5527,PAYLOAD,2024-06-26 11:23:53,14.98329482,0.0003509,69.9992,230.6323,264.4223,95.6535,-1.284e-05,-2.46e-06,0.0,0 STARLINK-5527,1 56497U 23064BB  24178.47492506 -.00000246  00000-0 -12840-4 0  9998,2 56497  69.9992 230.6323 0003509 264.4223  95.6535 14.98329482 63187,6950.194,96.107,574.498,569.621,0.0
56497.0,STARLINK-5527,PAYLOAD,2024-06-27 05:01:22,14.98329434,0.0003612,69.9988,228.7808,264.6989,95.3758,5.3218e-05,5.42e-06,0.0,0 STARLINK-5527,1 56497U 23064BB  24179.20928356  .00000542  00000-0  53218-4 0  9998,2 56497  69.9988 228.7808 0003612 264.6989  95.3758 14.98329434 63657,6950.195,96.107,574.57,569.549,0.0
56497.0,STARLINK-5527,PAYLOAD,2024-06-27 13:02:02,14.98332882,0.0003781,69.9984,227.9383,269.2166,90.856,7.8765e-05,8.47e-06,0.0,0 STARLINK-5527,1 56497U 23064BB  24179.54308101  .00000847  00000-0  78765-4 0  9997,2 56497  69.9984 227.9383 0003781 269.2166  90.8560 14.98332882 63345,6950.184,96.107,574.677,569.421,0.0
56497.0,STARLINK-5527,PAYLOAD,2024-06-28 05:03:23,14.98330582,0.0003794,69.9984,226.2553,269.1115,90.9609,3.8254e-05,3.63e-06,0.0,0 STARLINK-5527,1 56497U 23064BB  24180.21068358  .00000363  00000-0  38254-4 0  9992,2 56497  69.9984 226.2553 0003794 269.1115  90.9609 14.98330582 63804,6950.191,96.107,574.693,569.419,0.0
56497.0,STARLINK-5527,PAYLOAD,2024-06-28 13:04:03,14.98335112,0.0003781,69.9984,225.4138,268.9265,91.1461,8.5201e-05,9.24e-06,0.0,0 STARLINK-5527,1 56497U 23064BB  24180.54447928  .00000924  00000-0  85201-4 0  9999,2 56497  69.9984 225.4138 0003781 268.9265  91.1461 14.98335112 63491,6950.177,96.107,574.67,569.414,0.0
56497.0,STARLINK-5527,PAYLOAD,2024-06-29 05:05:23,14.98333131,0.0003749,69.9986,223.7305,268.555,91.518,1.2443e-05,5.5e-07,0.0,0 STARLINK-5527,1 56497U 23064BB  24181.21208173  .00000055  00000-0  12443-4 0  9994,2 56497  69.9986 223.7305 0003749 268.5550  91.5180 14.98333131 63959,6950.183,96.107,574.654,569.443,0.0
56497.0,STARLINK-5527,PAYLOAD,2024-06-29 13:06:03,14.9833689,0.000372,69.9985,222.889,268.311,91.7622,5.4444e-05,5.57e-06,0.0,0 STARLINK-5527,1 56497U 23064BB  24181.54587734  .00000557  00000-0  54444-4 0  9997,2 56497  69.9985 222.8890 0003720 268.3110  91.7622 14.98336890 63640,6950.172,96.107,574.622,569.451,0.0
56497.0,STARLINK-5527,PAYLOAD,2024-06-29 19:30:36,14.98332523,0.0003598,69.9988,222.2146,267.6709,92.4038,-4.567e-05,-6.38e-06,0.0,0 STARLINK-5527,1 56497U 23064BB  24181.81292194 -.00000638  00000-0 -45670-4 0  9993,2 56497  69.9988 222.2146 0003598 267.6709  92.4038 14.98332523 63682,6950.185,96.107,574.551,569.549,0.0
56497.0,STARLINK-5527,PAYLOAD,2024-06-30 05:07:25,14.98326098,0.0003398,69.999,221.2053,265.4461,94.6309,-2.2107e-05,-3.57e-06,0.0,0 STARLINK-5527,1 56497U 23064BB  24182.21348616 -.00000357  00000-0 -22107-4 0  9997,2 56497  69.9990 221.2053 0003398 265.4461  94.6309 14.98326098 64103,6950.205,96.107,574.432,569.708,0.0
56497.0,STARLINK-5527,PAYLOAD,2024-06-30 13:08:05,14.98324574,0.0003449,69.9989,220.3637,265.3021,94.7744,-4.158e-05,-5.89e-06,0.0,0 STARLINK-5527,1 56497U 23064BB  24182.54728845 -.00000589  00000-0 -41580-4 0  9992,2 56497  69.9989 220.3637 0003449 265.3021  94.7744 14.98324574 63792,6950.21,96.107,574.472,569.678,0.0
56497.0,STARLINK-5527,PAYLOAD,2024-06-30 19:32:37,14.98329604,0.0003468,69.9989,219.6904,267.1703,92.9059,-3.0612e-06,-1.3e-06,0.0,0 STARLINK-5527,1 56497U 23064BB  24182.81432489 -.00000130  00000-0 -30612-5 0  9995,2 56497  69.9989 219.6904 0003468 267.1703  92.9059 14.98329604 63831,6950.194,96.107,574.469,569.649,0.0
56497.0,STARLINK-5527,PAYLOAD,2024-07-01 05:09:25,14.98334422,0.0003588,69.9985,218.6805,265.909,94.1659,4.0527e-05,3.91e-06,0.0,0 STARLINK-5527,1 56497U 23064BB  24183.21488008  .00000391  00000-0  40527-4 0  9990,2 56497  69.9985 218.6805 0003588 265.9090  94.1659 14.98334422 64255,6950.179,96.107,574.538,569.55,0.0
56497.0,STARLINK-5527,PAYLOAD,2024-07-01 11:33:57,14.98333828,0.0003611,69.9985,218.0072,265.8595,94.2151,3.1551e-05,2.83e-06,0.0,0 STARLINK-5527,1 56497U 23064BB  24183.48192010  .00000283  00000-0  31551-4 0  9991,2 56497  69.9985 218.0072 0003611 265.8595  94.2151 14.98333828 63932,6950.181,96.107,574.556,569.536,0.0
56497.0,STARLINK-5527,PAYLOAD,2024-07-02 05:11:26,14.9832536,0.0003688,69.9983,216.1555,266.5159,93.5578,8.8214e-05,9.6e-06,0.0,0 STARLINK-5527,1 56497U 23064BB  24184.21628406  .00000960  00000-0  88214-4 0  9996,2 56497  69.9983 216.1555 0003688 266.5159  93.5578 14.98325360 64403,6950.207,96.107,574.635,569.509,0.0
56497.0,STARLINK-5527,PAYLOAD,2024-07-02 11:35:59,14.98327257,0.0003724,69.9982,215.482,266.5713,93.502,7.4351e-05,7.94e-06,0.0,0 STARLINK-5527,1 56497U 23064BB  24184.48332368  .00000794  00000-0  74351-4 0  9996,2 56497  69.9982 215.4820 0003724 266.5713  93.5020 14.98327257 64089,6950.201,96.107,574.655,569.478,0.0
56497.0,STARLINK-5527,PAYLOAD,2024-07-03 05:13:27,14.98332036,0.0003678,69.9984,213.6307,266.1152,93.9586,1.4646e-05,8.2e-07,0.0,0 STARLINK-5527,1 56497U 23064BB  24185.21768206  .00000082  00000-0  14646-4 0  9993,2 56497  69.9984 213.6307 0003678 266.1152  93.9586 14.98332036 64556,6950.187,96.107,574.608,569.495,0.0
56497.0,STARLINK-5527,PAYLOAD,2024-07-03 19:38:40,14.98332178,0.0003754,69.9982,212.115,267.4415,92.6314,2.9567e-05,2.6e-06,0.0,0 STARLINK-5527,1 56497U 23064BB  24185.81852045  .00000260  00000-0  29567-4 0  9990,2 56497  69.9982 212.1150 0003754 267.4415  92.6314 14.98332178 64287,6950.186,96.107,574.66,569.442,0.0
56497.0,STARLINK-5527,PAYLOAD,2024-07-04 05:15:28,14.9833091,0.0003744,69.9982,211.1051,267.1303,92.9427,4.0167e-05,3.86e-06,0.0,0 STARLINK-5527,1 56497U 23064BB  24186.21908042  .00000386  00000-0  40167-4 0  9992,2 56497  69.9982 211.1051 0003744 267.1303  92.9427 14.98330910 64705,6950.19,96.107,574.657,569.453,0.0
56497.0,STARLINK-5527,PAYLOAD,2024-07-04 11:40:00,14.98331725,0.0003758,69.9983,210.4321,267.601,92.4719,4.4488e-05,4.38e-06,0.0,0 STARLINK-5527,1 56497U 23064BB  24186.48611956  .00000438  00000-0  44488-4 0  9994,2 56497  69.9983 210.4321 0003758 267.6010  92.4719 14.98331725 64381,6950.188,96.107,574.664,569.441,0.0
56497.0,STARLINK-5527,PAYLOAD,2024-07-05 05:17:29,14.98331929,0.0003751,69.9984,208.5805,267.4163,92.6567,2.1811e-05,1.67e-06,0.0,0 STARLINK-5527,1 56497U 23064BB  24187.22047921  .00000167  00000-0  21811-4 0  9996,2 56497  69.9984 208.5805 0003751 267.4163  92.6567 14.98331929 64858,6950.187,96.107,574.659,569.445,0.0
56497.0,STARLINK-5527,PAYLOAD,2024-07-05 11:42:01,14.98333026,0.0003747,69.9985,207.9073,267.4242,92.6488,3.2063e-05,2.9e-06,0.0,0 STARLINK-5527,1 56497U 23064BB  24187.48751784  .00000290  00000-0  32063-4 0  9991,2 56497  69.9985 207.9073 0003747 267.4242  92.6488 14.98333026 64539,6950.184,96.107,574.653,569.444,0.0
56497.0,STARLINK-5527,PAYLOAD,2024-07-05 18:06:33,14.98331555,0.0003726,69.9986,207.234,267.5612,92.5121,2.4453e-05,1.99e-06,0.0,0 STARLINK-5527,1 56497U 23064BB  24187.75455853  .00000199  00000-0  24453-4 0  9991,2 56497  69.9986 207.2340 0003726 267.5612  92.5121 14.98331555 64571,6950.188,96.107,574.643,569.463,0.0
56497.0,STARLINK-5527,PAYLOAD,2024-07-06 05:19:30,14.98330778,0.0003701,69.9987,206.0557,267.7033,92.3702,9.6753e-06,2.2e-07,0.0,0 STARLINK-5527,1 56497U 23064BB  24188.22187897  .00000022  00000-0  96753-5 0  9992,2 56497  69.9987 206.0557 0003701 267.7033  92.3702 14.98330778 65009,6950.19,96.107,574.628,569.483,0.0
56497.0,STARLINK-5527,PAYLOAD,2024-07-06 11:44:02,14.98331369,0.0003693,69.9988,205.3825,267.4419,92.6317,1.5767e-05,9.5e-07,0.0,0 STARLINK-5527,1 56497U 23064BB  24188.48891797  .00000095  00000-0  15767-4 0  9996,2 56497  69.9988 205.3825 0003693 267.4419  92.6317 14.98331369 64680,6950.189,96.107,574.62,569.487,0.0
56497.0,STARLINK-5527,PAYLOAD,2024-07-06 18:08:34,14.98329727,0.0003684,69.9989,204.7092,267.6568,92.4169,-4.4911e-06,-1.47e-06,0.0,0 STARLINK-5527,1 56497U 23064BB  24188.75595931 -.00000147  00000-0 -44911-5 0  9991,2 56497  69.9989 204.7092 0003684 267.6568  92.4169 14.98329727 64720,6950.194,96.107,574.619,569.498,0.0
56497.0,STARLINK-5527,PAYLOAD,2024-07-07 05:21:31,14.9832911,0.0003686,69.9989,203.531,267.6377,92.436,-9.8832e-06,-2.11e-06,0.0,0 STARLINK-5527,1 56497U 23064BB  24189.22327988 -.00000211  00000-0 -98832-5 0  9992,2 56497  69.9989 203.5310 0003686 267.6377  92.4360 14.98329110 65157,6950.196,96.107,574.622,569.499,0.0
56497.0,STARLINK-5527,PAYLOAD,2024-07-07 10:09:55,14.98328604,0.0003691,69.999,203.0261,267.4319,92.6418,-1.5127e-05,-2.74e-06,0.0,0 STARLINK-5527,1 56497U 23064BB  24189.42356040 -.00000274  00000-0 -15127-4 0  9999,2 56497  69.9990 203.0261 0003691 267.4319  92.6418 14.98328604 64825,6950.197,96.107,574.628,569.497,0.0
